OBJECT_NAME,OBJECT_ID,EPOCH,MEAN_MOTION,ECCENTRICITY,INCLINATION,RA_OF_ASC_NODE,ARG_OF_PERICENTER,MEAN_ANOMALY,EPHEMERIS_TYPE,CLASSIFICATION_TYPE,NORAD_CAT_ID,ELEMENT_SET_NO,REV_AT_EPOCH,BSTAR,MEAN_MOTION_DOT,MEAN_MOTION_DDOT
SAUDISAT 5A,2018-102A,2026-07-19T20:07:21.895104,15.28347350,.0009995,97.3045,261.7933,28.7979,331.3810,0,U,43831,999,42066,.10155E-3,.2733E-4,0
SAUDISAT 5B,2018-102C,2026-07-19T20:26:51.141984,15.28588949,.0010761,97.3155,264.9355,30.0731,330.1125,0,U,43833,999,42078,.9314E-4,.252E-4,0
GAOFEN-10R,2019-066A,2026-07-19T21:02:26.208672,14.83062608,.000662,98.0511,154.6967,40.3499,319.8204,0,U,44622,999,36722,.67743E-4,.496E-5,0
CARTOSAT-3,2019-081A,2026-07-19T19:49:03.225792,15.19202441,.0012602,97.4282,262.1639,44.3193,315.9048,0,U,44804,999,36842,.93131E-4,.1895E-4,0
GAOFEN-12 01,2019-082A,2026-07-19T20:37:46.950816,14.80481443,.0000748,97.8112,206.3783,63.1057,297.0232,0,U,44819,999,35892,.24811E-4,.139E-5,0
CSG-1,2019-092A,2026-07-19T20:40:31.694880,14.82158753,.0001465,97.8899,23.9924,95.0437,265.0943,0,U,44873,999,35631,.20998E-4,.115E-5,0
NEMO-HD,2020-061F,2026-07-19T20:08:15.914112,15.45197863,.0001032,97.1896,262.4729,109.8932,250.2429,0,U,46277,999,32702,.13949E-3,.6532E-4,0
SENTINEL-6A,2020-086A,2026-07-19T19:10:59.426688,12.80930213,.0007795,66.0411,67.3174,269.7244,90.2878,0,U,46984,999,26450,-.74222E-5,-.63E-6,0
CAS500-1,2021-022A,2026-07-19T20:14:58.960608,15.20159759,.0005671,97.3854,95.4290,156.0142,204.1358,0,U,47932,999,29572,.14187E-3,.3003E-4,0
GAOFEN-12 02,2021-026A,2026-07-19T20:58:46.595424,14.80317954,.000607,97.9938,198.9238,120.0723,240.1091,0,U,48079,999,28659,.26409E-4,.148E-5,0
PLEIADES NEO 3,2021-034A,2026-07-19T07:56:44.636352,14.81672056,.00013939,97.8937,274.6355,96.6622,263.4750,0,U,48268,999,28241,.26537661E-4,.157E-5,0
LANDSAT 9,2021-088A,2026-07-19T19:33:15.244128,14.57097359,.0001092,98.2266,270.5946,91.3836,268.7488,0,U,49260,999,25575,.41576E-4,.142E-5,0
CSG-2,2022-008A,2026-07-19T08:31:21.408096,14.82176378,.00016613,97.8896,23.4868,89.8481,270.2922,0,U,51444,999,24135,.45603774E-4,.311E-5,0
GAOFEN-12 03,2022-069A,2026-07-19T20:12:30.643776,14.80079289,.0002359,97.8230,87.8826,67.7788,292.3674,0,U,52912,999,21944,.55537E-4,.37E-5,0
SWOT,2022-173A,2026-07-19T20:34:20.961984,14.00172514,.0000227,77.6116,351.2043,67.1311,292.9865,0,U,54754,999,18372,-.83674E-5,-.15E-6,0
GAOFEN-12 04,2023-123A,2026-07-19T20:42:13.423104,14.79779985,.0003271,97.9097,118.3908,40.4439,319.7016,0,U,57654,999,15746,.63199E-4,.424E-5,0
PARS 1,2024-039Q,2026-07-19T20:52:49.754784,15.46351156,.0009191,97.4846,182.8391,11.2154,348.9298,0,U,59065,999,13369,.13515E-3,.6586E-4,0
RESURS-P 4,2024-061A,2026-07-19T20:25:59.947392,15.32296035,.000321,97.2761,148.1873,82.6458,277.5149,0,U,59371,999,12876,.54989E-4,.1639E-4,0
LEGION 1,2024-081A,2026-07-19T19:36:15.014880,15.16860343,.000782,97.5008,278.3280,250.4529,109.5859,0,U,59625,999,12248,.88233E-4,.167E-4,0
LEGION 2,2024-081B,2026-07-19T20:20:06.110016,15.16840519,.0010583,97.5008,278.4547,215.8166,144.2358,0,U,59626,999,12249,.95231E-4,.1807E-4,0
ALOS-4 (DAICHI-4),2024-123A,2026-07-19T19:48:16.267392,14.79476713,.0001543,97.9221,297.5326,98.1551,261.9835,0,U,60182,999,11070,.89649E-4,.618E-5,0
LEGION 3,2024-146A,2026-07-19T10:09:00.212832,15.15668412,.00077911,45.0014,217.7272,357.1385,2.9448,0,U,60452,999,10691,.72052754E-4,.113E-4,0
LEGION 4,2024-146B,2026-07-19T16:28:08.556960,15.15698544,.0009234,45.0023,308.1835,141.4353,218.7187,0,U,60453,999,10580,.10636E-3,.1797E-4,0
SENTINEL-2C,2024-157A,2026-07-19T19:55:03.932832,14.30816462,.0001026,98.5681,275.1481,105.9095,254.2201,0,U,60989,999,9765,.30239E-4,.36E-6,0
IONOSFERA-M 1,2024-199A,2026-07-19T21:29:12.325920,14.22759724,.0002089,98.7129,73.7156,66.0188,294.1209,0,U,61735,999,13235,.1969E-4,0,0
IONOSFERA-M 2,2024-199B,2026-07-19T20:37:12.658656,14.22763039,.0000678,98.7127,73.5902,130.3454,229.7783,0,U,61736,999,13547,.20069E-4,.1E-7,0
PRSC-EO1,2025-012A,2026-07-19T19:52:52.901184,15.17652955,.0007099,97.4209,272.6476,133.3602,226.8224,0,U,62725,999,8314,.16753E-3,.3307E-4,0
BIOMASS,2025-090A,2026-07-19T11:46:59.966976,14.67535137,.00014118,98.0751,27.3359,90.4750,269.6617,0,U,63772,999,6542,.50119626E-4,.236E-5,0
GOSAT-GW (IBUKI GW),2025-141A,2026-07-19T20:22:39.453600,14.67555537,.0001448,98.0564,137.6355,85.3356,274.8014,0,U,64694,999,5663,.47626E-4,.222E-5,0
IONOSFERA-M 3,2025-155A,2026-07-19T20:03:28.642752,14.21491266,.0002397,98.6044,161.9223,105.4762,254.6680,0,U,64876,999,5104,.25095E-4,.12E-6,0
