SAUDISAT 5A             
1 43831U 18102A   26200.83844786  .00002733  00000+0  10155-3 0  9998
2 43831  97.3045 261.7933 0009995  28.7979 331.3810 15.28347350420669
SAUDISAT 5B             
1 43833U 18102C   26200.85198081  .00002520  00000+0  93140-4 0  9992
2 43833  97.3155 264.9355 0010761  30.0731 330.1125 15.28588949420781
GAOFEN-10R              
1 44622U 19066A   26200.87669223  .00000496  00000+0  67743-4 0  9992
2 44622  98.0511 154.6967 0006620  40.3499 319.8204 14.83062608367220
CARTOSAT-3              
1 44804U 19081A   26200.82573178  .00001895  00000+0  93131-4 0  9993
2 44804  97.4282 262.1639 0012602  44.3193 315.9048 15.19202441368420
GAOFEN-12 01            
1 44819U 19082A   26200.85957119  .00000139  00000+0  24811-4 0  9993
2 44819  97.8112 206.3783 0000748  63.1057 297.0232 14.80481443358925
CSG-1                   
1 44873U 19092A   26200.86147795  .00000115  00000+0  20998-4 0  9992
2 44873  97.8899  23.9924 0001465  95.0437 265.0943 14.82158753356312
NEMO-HD                 
1 46277U 20061F   26200.83907308  .00006532  00000+0  13949-3 0  9997
2 46277  97.1896 262.4729 0001032 109.8932 250.2429 15.45197863327025
SENTINEL-6A             
1 46984U 20086A   26200.79929892 -.00000063  00000+0 -74222-5 0  9994
2 46984  66.0411  67.3174 0007795 269.7244  90.2878 12.80930213264501
CAS500-1                
1 47932U 21022A   26200.84373797  .00003003  00000+0  14187-3 0  9999
2 47932  97.3854  95.4290 0005671 156.0142 204.1358 15.20159759295722
GAOFEN-12 02            
1 48079U 21026A   26200.87415041  .00000148  00000+0  26409-4 0  9996
2 48079  97.9938 198.9238 0006070 120.0723 240.1091 14.80317954286592
PLEIADES NEO 3          
1 48268U 21034A   26200.33107218  .00000157  00000+0  26538-4 0  9993
2 48268  97.8937 274.6355 0001393  96.6622 263.4750 14.81672056282416
LANDSAT 9               
1 49260U 21088A   26200.81475977  .00000142  00000+0  41576-4 0  9991
2 49260  98.2266 270.5946 0001092  91.3836 268.7488 14.57097359255758
CSG-2                   
1 51444U 22008A   26200.35510889  .00000311  00000+0  45604-4 0  9996
2 51444  97.8896  23.4868 0001661  89.8481 270.2922 14.82176378241356
GAOFEN-12 03            
1 52912U 22069A   26200.84202134  .00000370  00000+0  55537-4 0  9990
2 52912  97.8230  87.8826 0002359  67.7788 292.3674 14.80079289219442
SWOT                    
1 54754U 22173A   26200.85718706 -.00000015  00000+0 -83674-5 0  9992
2 54754  77.6116 351.2043 0000227  67.1311 292.9865 14.00172514183720
GAOFEN-12 04            
1 57654U 23123A   26200.86265536  .00000424  00000+0  63199-4 0  9990
2 57654  97.9097 118.3908 0003271  40.4439 319.7016 14.79779985157463
PARS 1                  
1 59065U 24039Q   26200.87002031  .00006586  00000+0  13515-3 0  9996
2 59065  97.4846 182.8391 0009191  11.2154 348.9298 15.46351156133693
RESURS-P 4              
1 59371U 24061A   26200.85138828  .00001639  00000+0  54989-4 0  9998
2 59371  97.2761 148.1873 0003210  82.6458 277.5149 15.32296035128765
LEGION 1                
1 59625U 24081A   26200.81684045  .00001670  00000+0  88233-4 0  9999
2 59625  97.5008 278.3280 0007820 250.4529 109.5859 15.16860343122483
LEGION 2                
1 59626U 24081B   26200.84729294  .00001807  00000+0  95231-4 0  9997
2 59626  97.5008 278.4547 0010583 215.8166 144.2358 15.16840519122497
ALOS-4 (DAICHI-4)       
1 60182U 24123A   26200.82518828  .00000618  00000+0  89649-4 0  9995
2 60182  97.9221 297.5326 0001543  98.1551 261.9835 14.79476713110707
LEGION 3                
1 60452U 24146A   26200.42291913  .00001130  00000+0  72053-4 0  9990
2 60452  45.0014 217.7272 0007791 357.1385   2.9448 15.15668412106910
LEGION 4                
1 60453U 24146B   26200.68621015  .00001797  00000+0  10636-3 0  9996
2 60453  45.0023 308.1835 0009234 141.4353 218.7187 15.15698544105807
SENTINEL-2C             
1 60989U 24157A   26200.82990663  .00000036  00000+0  30239-4 0  9993
2 60989  98.5681 275.1481 0001026 105.9095 254.2201 14.30816462 97655
IONOSFERA-M 1           
1 61735U 24199A   26200.89528155  .00000000  00000+0  19690-4 0  9998
2 61735  98.7129  73.7156 0002089  66.0188 294.1209 14.22759724132351
IONOSFERA-M 2           
1 61736U 24199B   26200.85917429  .00000001  00000+0  20069-4 0  9994
2 61736  98.7127  73.5902 0000678 130.3454 229.7783 14.22763039135471
PRSC-EO1                
1 62725U 25012A   26200.82839006  .00003307  00000+0  16753-3 0  9995
2 62725  97.4209 272.6476 0007099 133.3602 226.8224 15.17652955 83140
BIOMASS                 
1 63772U 25090A   26200.49097184  .00000236  00000+0  50120-4 0  9995
2 63772  98.0751  27.3359 0001411  90.4750 269.6617 14.67535137 65424
GOSAT-GW (IBUKI GW)     
1 64694U 25141A   26200.84906775  .00000222  00000+0  47626-4 0  9992
2 64694  98.0564 137.6355 0001448  85.3356 274.8014 14.67555537 56634
IONOSFERA-M 3           
1 64876U 25155A   26200.83574818  .00000012  00000+0  25095-4 0  9990
2 64876  98.6044 161.9223 0002397 105.4762 254.6680 14.21491266 51041
